IRIDIUM 921             
1 24873U 97034E   24225.67050458  .00107105  00000+0  23419-2 0  9991
2 24873  86.3756 260.0551 0004827  70.5880 289.5897 15.43751842484160
IRIDIUM 26              
1 24903U 97043A   24225.47544881  .00001899  00000+0  64098-3 0  9993
2 24903  86.3922 240.1298 0002425  86.5904 273.5570 14.36483802412411
IRIDIUM 22              
1 24907U 97043E   24225.57471684  .00001731  00000+0  59706-3 0  9993
2 24907  86.3923 243.3701 0002254  91.1629 268.9826 14.35368086412491
DUMMY MASS 1            
1 24925U 97048A   24225.67990710  .00001584  00000+0  17665-3 0  9999
2 24925  86.3317 277.8839 0007937 143.7548 216.4216 14.86337025459531
DUMMY MASS 2            
1 24926U 97048B   24225.72573374  .00001617  00000+0  18143-3 0  9998
2 24926  86.3319 279.4165 0008314 154.8227 205.3404 14.86094878459320
IRIDIUM 29              
1 24944U 97051A   24225.83864759  .00002072  00000+0  70940-3 0  9993
2 24944  86.3920 273.1502 0002249  98.5140 261.6312 14.35825089409231
IRIDIUM 33              
1 24946U 97051C   24225.70969226  .00001117  00000+0  38972-3 0  9994
2 24946  86.3834 272.4521 0008353  20.8953 339.2582 14.34450842408524
IRIDIUM 28              
1 24948U 97051E   24225.59600927  .00001686  00000+0  56528-3 0  9991
2 24948  86.3923 270.9414 0002420  82.1374 278.0098 14.36777547409525
